#aV2012 11  4  0  0  0.00000000     288 DD+AD WGS84 FIT  NGA
## 1713      0.00000000   300.00000000 56235 0.0000000000000
+   31     1  2  3  4  5  6  7  8  9 10 11 12 13 14 15 16 17
+         18 19 20 21 22 23 24 25 26 28 29 30 31 32  0  0  0
+          0  0  0  0  0  0  0  0  0  0  0  0  0  0  0  0  0
+          0  0  0  0  0  0  0  0  0  0  0  0  0  0  0  0  0
+          0  0  0  0  0  0  0  0  0  0  0  0  0  0  0  0  0
++         2  2  2  2  2  2  2  2  2  2  2  2  2  2  2  2  2
++         2  2  2  2  2  2  2  2  2  2  2  2  2  2  2  0  0
++         0  0  0  0  0  0  0  0  0  0  0  0  0  0  0  0  0
++         0  0  0  0  0  0  0  0  0  0  0  0  0  0  0  0  0
++         0  0  0  0  0  0  0  0  0  0  0  0  0  0  0  0  0
%c cc cc ccc ccc cccc cccc cccc cccc ccccc ccccc ccccc ccccc
%c cc cc ccc ccc cccc cccc cccc cccc ccccc ccccc ccccc ccccc
%f  0.0000000  0.000000000  0.00000000000  0.000000000000000
%f  0.0000000  0.000000000  0.00000000000  0.000000000000000
%i    0    0    0    0      0      0      0      0         0
%i    0    0    0    0      0      0      0      0         0
/*      NGA, ST. LOUIS,MO.                                  
/*   EPHEMERIS COMPUTED FROM  1 DAYS OF DATA
/*   EPOCHA SMOOTHER  
/* CCCCCCCCCCCCCCCCCCCCCCCCCCCCCCCCCCCCCCCCCCCCCCCCCCCCCCCCC
*  2012 11  4 16 10  0.00000000                                                 
P  1  18154.513721   6393.064071  18306.686441    280.893681                    
V  1   9901.315041  21113.920769 -17113.887061      0.017764                    
P  2 -14404.819257 -22569.302115  -1734.314882    407.955366                    
V  2   1497.899875  -3577.849285  30821.314900      0.010988                    
P  3  17427.776911  10962.159144 -17407.215122    123.859991                    
V  3 -20778.425049   4371.017600 -18346.328006      0.051650                    
P  4  -3589.902312 -23530.161408  11193.232772     36.377849                    
V  4  10048.464564  11340.116101  26718.280903      0.112957                    
P  5  -8605.234453 -14304.036092 -20655.400316   -364.304967                    
V  5  14413.429752 -21947.142265   9344.395960     -0.026001                    
P  6  11998.232950  13696.920962 -19341.579175    466.828802                    
V  6 -24676.211449   2315.844006 -13274.231018     -0.103229                    
P  7  11922.140969  -9114.999553 -21856.605706    141.556708                    
V  7  13264.538991  24458.901997  -3237.091590      0.045113                    
P  8   3757.915303 -19582.605523 -17131.389289      2.687529                    
V  8   9852.459420  19834.485070 -20969.711820      0.002010                    
P  9 -17985.484736 -11426.879260  15266.033274    197.368005                    
V  9  -8442.032515 -18605.195642 -23115.756977      0.027228                    
P 10   6465.783564 -23653.944005  -9936.662318    -57.400694                    
V 10   9329.093913  -8765.301593  28099.732239     -0.011974                    
P 11  22169.438732   9583.738662  10947.023097   -319.792831                    
V 11   7371.062875  13277.828202 -25269.853256     -0.038410                    
P 12 -17571.118569   3109.526334  19589.165295     99.834393                    
V 12  12593.386326 -21531.779381  14884.386327      0.020412                    
P 13  22839.602565  -5706.823709 -12539.959086    169.607805                    
V 13  15335.164862   3424.028450  26546.766526     -0.026911                    
P 14  -7149.882286  14000.081145  21582.684027    216.139690                    
V 14 -26762.614376  -2957.471524  -7153.367386      0.006742                    
P 15 -25297.392757  -4925.218316  -6918.756904    -98.851241                    
V 15   8728.611422  -3031.333660 -29558.034089     -0.008948                    
P 16   7520.771666  14102.974153 -21156.526828   -249.052096                    
V 16 -15589.847828  21881.862789   9351.662565     -0.005816                    
P 17   6145.581533 -14585.996304  21482.272871     81.674791                    
V 17  26785.067581   2216.838212  -6451.134973     -0.034918                    
P 18 -16508.628661  19869.631867  -4927.125255    222.995005                    
V 18     94.758671  -7945.233264 -30400.796439      0.018396                    
P 19  23818.955612   8722.714641  -8612.080274   -319.148986                    
V 19 -10901.929174   1048.750084 -28949.332814     -0.034656                    
P 20  18429.604395  -5725.272059  18051.902000     72.400458                    
V 20  -9320.952959  21554.556725  16277.408438      0.010789                    
P 21 -10154.915345  12884.599139 -20275.966293   -260.147517                    
V 21 -14115.965209 -23224.728981  -8051.886141     -0.023480                    
P 22  -8303.221412  24088.612521   7448.780409    150.605791                    
V 22  -8048.335291   5957.642369 -29092.072799      0.007840                    
P 23  26759.811807    779.791957   -203.708868    147.381327                    
V 23    237.900624   2584.855079  31441.943847     -0.038739                    
P 24 -16759.555488 -19628.212165   7219.005406      3.929217                    
V 24  -2244.224790  -9046.483901 -29820.041813      0.015951                    
P 25 -18304.014501  15321.344706  11537.263508     49.534479                    
V 25   5649.658175 -13764.396025  27215.296182      0.017810                    
P 26 -16863.106220 -13083.396097 -16655.740750   -221.965297                    
V 26  19794.776473   1143.744038 -21422.004699      0.135653                    
P 28  11639.804970 -23286.511308   5202.095915    201.501022                    
V 28   5158.071678  -3638.176280 -31440.617234      0.036609                    
P 29 -23977.132065   5333.934202 -10006.024662    373.461271                    
V 29 -12590.560379  -3311.212060  28302.077590      0.040778                    
P 30    837.313821  22269.628875 -14825.358094   -334.686711                    
V 30  -9570.445118  15595.093112  23429.105132      0.163163                    
P 31   5904.834775  24243.110529   8916.857948    284.807221                    
V 31  -7041.180062  -8851.355034  29601.787601      0.022254                    
P 32  14668.304617   5897.917354  21463.122238   -504.779573                    
V 32 -15367.378946  22140.609071   4954.960253     -0.035825                    
EOF
